NORAD_CAT_ID,OBJECT_NAME,OBJECT_TYPE,EPOCH,MEAN_MOTION,ECCENTRICITY,INCLINATION,RA_OF_ASC_NODE,ARG_OF_PERICENTER,MEAN_ANOMALY,BSTAR,MEAN_MOTION_DOT,MEAN_MOTION_DDOT,TLE_LINE0,TLE_LINE1,TLE_LINE2,SEMIMAJOR_AXIS,PERIOD,APOGEE,PERIGEE,DECAYED
52312.0,STARLINK-3752,PAYLOAD,2024-04-03 04:45:17,15.08840748,0.0001511,53.2195,16.144,100.8428,259.2734,0.00010837,1.437e-05,0.0,0 STARLINK-3752,1 52312U 22041BD  24094.19812362  .00001437  00000-0  10837-3 0  9990,2 52312  53.2195  16.1440 0001511 100.8428 259.2734 15.08840748109363,6917.878,95.438,540.788,538.698,0.0
52312.0,STARLINK-3752,PAYLOAD,2024-04-03 19:03:46,15.08838065,0.0001389,53.2189,13.4678,98.4167,261.6983,6.9801e-05,8.23e-06,0.0,0 STARLINK-3752,1 52312U 22041BD  24094.79428507  .00000823  00000-0  69801-4 0  9994,2 52312  53.2189  13.4678 0001389  98.4167 261.6983 15.08838065109456,6917.886,95.438,540.712,538.79,0.0
52312.0,STARLINK-3752,PAYLOAD,2024-04-04 04:36:04,15.08846283,0.0001464,53.2188,11.6855,97.4274,262.6885,7.6129e-05,9.24e-06,0.0,0 STARLINK-3752,1 52312U 22041BD  24095.19172003  .00000924  00000-0  76129-4 0  9999,2 52312  53.2188  11.6855 0001464  97.4274 262.6885 15.08846283109514,6917.861,95.437,540.739,538.713,0.0
52312.0,STARLINK-3752,PAYLOAD,2024-04-04 10:57:37,15.08841654,0.0001348,53.2176,10.496,99.441,260.6734,4.1119e-05,3.67e-06,0.0,0 STARLINK-3752,1 52312U 22041BD  24095.45668209  .00000367  00000-0  41119-4 0  9998,2 52312  53.2176  10.4960 0001348  99.4410 260.6734 15.08841654109552,6917.875,95.437,540.673,538.808,0.0
52312.0,STARLINK-3752,PAYLOAD,2024-04-04 22:05:19,15.08840724,0.0001426,53.2177,8.4144,93.3649,266.7506,9.269e-05,1.188e-05,0.0,0 STARLINK-3752,1 52312U 22041BD  24095.92036303  .00001188  00000-0  92690-4 0  9996,2 52312  53.2177   8.4144 0001426  93.3649 266.7506 15.08840724109627,6917.878,95.438,540.73,538.757,0.0
52312.0,STARLINK-3752,PAYLOAD,2024-04-05 01:16:05,15.08842468,0.0001438,53.2183,7.8206,95.3616,264.754,0.000183,2.626e-05,0.0,0 STARLINK-3752,1 52312U 22041BD  24096.05284201  .00002626  00000-0  18300-3 0  9996,2 52312  53.2183   7.8206 0001438  95.3616 264.7540 15.08842468109640,6917.873,95.437,540.733,538.743,0.0
52312.0,STARLINK-3752,PAYLOAD,2024-04-05 10:48:23,15.08850152,0.0001433,53.2179,6.0364,92.9833,267.1323,0.0001806,2.588e-05,0.0,0 STARLINK-3752,1 52312U 22041BD  24096.45027640  .00002588  00000-0  18060-3 0  9992,2 52312  53.2179   6.0364 0001433  92.9833 267.1323 15.08850152109702,6917.849,95.437,540.706,538.723,0.0
52312.0,STARLINK-3752,PAYLOAD,2024-04-05 21:56:05,15.08850334,0.0001561,53.2188,3.9557,101.1716,258.9451,0.00012049,1.631e-05,0.0,0 STARLINK-3752,1 52312U 22041BD  24096.91395432  .00001631  00000-0  12049-3 0  9999,2 52312  53.2188   3.9557 0001561 101.1716 258.9451 15.08850334109776,6917.849,95.437,540.794,538.634,0.0
52312.0,STARLINK-3752,PAYLOAD,2024-04-06 02:42:14,15.08855766,0.0001539,53.2193,3.0641,98.8501,261.2666,0.0001918,2.767e-05,0.0,0 STARLINK-3752,1 52312U 22041BD  24097.11267076  .00002767  00000-0  19180-3 0  9998,2 52312  53.2193   3.0641 0001539  98.8501 261.2666 15.08855766109809,6917.832,95.437,540.762,538.633,0.0
52312.0,STARLINK-3752,PAYLOAD,2024-04-06 10:39:10,15.08844463,0.0001858,53.2188,1.5746,77.8674,282.2526,1.4125e-05,-6.3e-07,0.0,0 STARLINK-3752,1 52312U 22041BD  24097.44387549 -.00000063  00000-0  14125-4 0  9995,2 52312  53.2188   1.5746 0001858  77.8674 282.2526 15.08844463109859,6917.867,95.437,541.017,538.446,0.0
52312.0,STARLINK-3752,PAYLOAD,2024-04-06 21:46:53,15.08828154,0.0001557,53.2198,359.4974,88.1641,271.9529,-0.00026247,-4.461e-05,0.0,0 STARLINK-3752,1 52312U 22041BD  24097.90756227 -.00004461  00000-0 -26247-3 0  9993,2 52312  53.2198 359.4974 0001557  88.1641 271.9529 15.08828154109928,6917.917,95.438,540.859,538.704,0.0
52312.0,STARLINK-3752,PAYLOAD,2024-04-07 10:29:58,15.08834265,0.0001568,53.2193,357.1176,82.877,277.24,-2.1407e-05,-6.29e-06,0.0,0 STARLINK-3752,1 52312U 22041BD  24098.43748360 -.00000629  00000-0 -21407-4 0  9997,2 52312  53.2193 357.1176 0001568  82.8770 277.2400 15.08834265110006,6917.898,95.438,540.848,538.678,0.0
52312.0,STARLINK-3752,PAYLOAD,2024-04-07 23:13:03,15.08840641,0.0001359,53.2177,354.7385,79.9652,280.1493,0.00034452,5.199e-05,0.0,0 STARLINK-3752,1 52312U 22041BD  24098.96740454  .00005199  00000-0  34452-3 0  9999,2 52312  53.2177 354.7385 0001359  79.9652 280.1493 15.08840641110085,6917.878,95.438,540.684,538.803,0.0
52312.0,STARLINK-3752,PAYLOAD,2024-04-08 02:23:50,15.0884649,0.0001392,53.2178,354.1429,78.5675,281.5474,0.00079187,0.00012339,0.0,0 STARLINK-3752,1 52312U 22041BD  24099.09988541  .00012339  00000-0  79187-3 0  9993,2 52312  53.2178 354.1429 0001392  78.5675 281.5474 15.08846490110101,6917.861,95.437,540.689,538.763,0.0
52312.0,STARLINK-3752,PAYLOAD,2024-04-08 10:20:45,15.08847997,0.0001405,53.2174,352.656,78.6214,281.4936,0.0006214,9.618e-05,0.0,0 STARLINK-3752,1 52312U 22041BD  24099.43108522  .00009618  00000-0  62140-3 0  9991,2 52312  53.2174 352.6560 0001405  78.6214 281.4936 15.08847997110151,6917.856,95.437,540.693,538.749,0.0
52312.0,STARLINK-3752,PAYLOAD,2024-04-08 23:03:50,15.0884989,0.0001561,53.2178,350.2754,88.1247,271.9924,0.00041595,6.34e-05,0.0,0 STARLINK-3752,1 52312U 22041BD  24099.96100391  .00006340  00000-0  41595-3 0  9995,2 52312  53.2178 350.2754 0001561  88.1247 271.9924 15.08849890110233,6917.85,95.437,540.795,538.635,0.0
52312.0,STARLINK-3752,PAYLOAD,2024-04-09 02:14:36,15.08850282,0.0001499,53.2175,349.6806,89.8957,270.2207,0.00040524,6.169e-05,0.0,0 STARLINK-3752,1 52312U 22041BD  24100.09348303  .00006169  00000-0  40524-3 0  9999,2 52312  53.2175 349.6806 0001499  89.8957 270.2207 15.08850282110251,6917.849,95.437,540.751,538.677,0.0
52312.0,STARLINK-3752,PAYLOAD,2024-04-09 22:54:38,15.08842675,0.000156,53.2173,345.816,79.8424,280.2744,0.00019652,2.841e-05,0.0,0 STARLINK-3752,1 52312U 22041BD  24100.95460758  .00002841  00000-0  19652-3 0  9994,2 52312  53.2173 345.8160 0001560  79.8424 280.2744 15.08842675110385,6917.872,95.437,540.816,538.658,0.0
52312.0,STARLINK-3752,PAYLOAD,2024-04-10 21:10:02,15.08845093,0.0001401,53.2179,341.6522,78.4348,281.6801,0.00030346,4.546e-05,0.0,0 STARLINK-3752,1 52312U 22041BD  24101.88196865  .00004546  00000-0  30346-3 0  9999,2 52312  53.2179 341.6522 0001401  78.4348 281.6801 15.08845093110523,6917.865,95.437,540.699,538.761,0.0
52312.0,STARLINK-3752,PAYLOAD,2024-04-11 21:00:49,15.08844167,0.0001299,53.2185,337.1923,72.8408,287.2727,0.00021087,3.07e-05,0.0,0 STARLINK-3752,1 52312U 22041BD  24102.87556943  .00003070  00000-0  21087-3 0  9999,2 52312  53.2185 337.1923 0001299  72.8408 287.2727 15.08844167110671,6917.868,95.437,540.631,538.834,0.0
52312.0,STARLINK-3752,PAYLOAD,2024-04-11 22:36:12,15.08845501,0.0001543,53.2183,336.8964,93.1445,266.9724,0.00020814,3.027e-05,0.0,0 STARLINK-3752,1 52312U 22041BD  24102.94180775  .00003027  00000-0  20814-3 0  9992,2 52312  53.2183 336.8964 0001543  93.1445 266.9724 15.08845501110684,6917.864,95.437,540.796,538.661,0.0
52312.0,STARLINK-3752,PAYLOAD,2024-04-12 01:46:58,15.08848469,0.0001537,53.2184,336.3003,91.0498,269.067,0.00026364,3.911e-05,0.0,0 STARLINK-3752,1 52312U 22041BD  24103.07428649  .00003911  00000-0  26364-3 0  9990,2 52312  53.2184 336.3003 0001537  91.0498 269.0670 15.08848469110705,6917.855,95.437,540.783,538.656,0.0
52312.0,STARLINK-3752,PAYLOAD,2024-04-12 22:26:59,15.0883716,9.53e-05,53.2197,332.4374,104.1497,255.9601,3.9057e-05,3.34e-06,0.0,0 STARLINK-3752,1 52312U 22041BD  24103.93541085  .00000334  00000-0  39057-4 0  9995,2 52312  53.2197 332.4374 0000953 104.1497 255.9601 15.08837160110831,6917.889,95.438,540.413,539.095,0.0
52312.0,STARLINK-3752,PAYLOAD,2024-04-13 01:37:47,15.08789471,0.0001438,53.2197,331.8437,72.8995,287.2154,-0.00091511,-0.00014802,0.0,0 STARLINK-3752,1 52312U 22041BD  24104.06790685 -.00014802  00000-0 -91511-3 0  9991,2 52312  53.2197 331.8437 0001438  72.8995 287.2154 15.08789471110851,6918.035,95.441,540.895,538.905,0.0
52312.0,STARLINK-3752,PAYLOAD,2024-04-13 20:42:24,15.08830082,0.0001698,53.2183,328.2715,75.6396,284.4785,9.7889e-05,1.27e-05,0.0,0 STARLINK-3752,1 52312U 22041BD  24104.86278732  .00001270  00000-0  97889-4 0  9991,2 52312  53.2183 328.2715 0001698  75.6396 284.4785 15.08830082110976,6917.911,95.438,540.95,538.601,0.0
52312.0,STARLINK-3752,PAYLOAD,2024-04-13 23:53:10,15.08847743,0.0001323,53.2176,327.6766,90.9837,269.1307,0.00047035,7.207e-05,0.0,0 STARLINK-3752,1 52312U 22041BD  24104.99526264  .00007207  00000-0  47035-3 0  9994,2 52312  53.2176 327.6766 0001323  90.9837 269.1307 15.08847743110996,6917.857,95.437,540.637,538.806,0.0
52312.0,STARLINK-3752,PAYLOAD,2024-04-14 20:33:11,15.08853699,0.0001594,53.2197,323.8014,92.5683,267.5491,0.00089644,0.00014013,0.0,0 STARLINK-3752,1 52312U 22041BD  24105.85638048  .00014013  00000-0  89644-3 0  9999,2 52312  53.2197 323.8014 0001594  92.5683 267.5491 15.08853699111129,6917.839,95.437,540.806,538.601,0.0
52312.0,STARLINK-3752,PAYLOAD,2024-04-14 22:08:34,15.08854873,0.0001611,53.2185,323.5089,71.7321,288.3847,0.0011153,0.00017514,0.0,0 STARLINK-3752,1 52312U 22041BD  24105.92262270  .00017514  00000-0  11153-2 0  9995,2 52312  53.2185 323.5089 0001611  71.7321 288.3847 15.08854873111135,6917.835,95.437,540.814,538.585,0.0
52312.0,STARLINK-3752,PAYLOAD,2024-04-15 14:02:25,15.08856138,0.0001931,53.2197,320.5327,134.5508,225.5642,0.000196,2.834e-05,0.0,0 STARLINK-3752,1 52312U 22041BD  24106.58501732  .00002834  00000-0  19600-3 0  9992,2 52312  53.2197 320.5327 0001931 134.5508 225.5642 15.08856138111233,6917.831,95.437,541.032,538.36,0.0
52312.0,STARLINK-3752,PAYLOAD,2024-04-15 20:23:57,15.08858998,0.0001544,53.2176,319.3495,79.096,281.0206,0.00025212,3.729e-05,0.0,0 STARLINK-3752,1 52312U 22041BD  24106.84997042  .00003729  00000-0  25212-3 0  9994,2 52312  53.2176 319.3495 0001544  79.0960 281.0206 15.08858998111270,6917.822,95.436,540.755,538.619,0.0
